[
    {
        "Altitude(m)": 624792.7402067422,
        "Argument of Periapsis(deg)": 0.0,
        "Eccentricity": 0.0,
        "Inclination(deg)": 60.0,
        "Latitude(deg)": -59.14699096692351,
        "Longitude(deg)": 119.02633109865823,
        "Mean Anomaly(deg)": -98.18179999999994,
        "RAAN(deg)": 325.0,
        "Satellite Name": "Test1 1446",
        "Satellite Number": 1446,
        "Semi-Major Axis(m)": 6980739.136638005,
        "Time(s)": 0
    },
    {
        "Altitude(m)": 624842.13261063,
        "Argument of Periapsis(deg)": 0.00010418945913296404,
        "Eccentricity": 0.0,
        "Inclination(deg)": 60.0,
        "Latitude(deg)": -59.28907542459858,
        "Longitude(deg)": 120.15583157903204,
        "Mean Anomaly(deg)": -97.56169385453809,
        "RAAN(deg)": 324.99957995086027,
        "Satellite Name": "Test1 1446",
        "Satellite Number": 1446,
        "Semi-Major Axis(m)": 6980739.136638005,
        "Time(s)": 10
    }
]